ATLAS CENTAUR 2         
1 00694U 63047A   26080.49356442  .00001909  00000+0  22005-3 0  9992
2 00694  30.3536 129.6725 0547430 184.3176 175.2559 14.12109735133291
THOR AGENA D R/B        
1 00733U 64002A   26080.52317165  .00000161  00000+0  74712-4 0  9993
2 00733  99.1220  94.5056 0032239 222.7500 137.1175 14.34026387239999
SL-3 R/B                
1 00877U 64053B   26080.32567148  .00000151  00000+0  53601-4 0  9997
2 00877  65.0765 297.1230 0080158 288.5594  70.6811 14.61376137268491
SL-8 R/B                
1 02802U 67045B   26080.61613675  .00000297  00000+0  89822-4 0  9995
2 02802  74.0125 325.8179 0064666 329.3931  30.3459 14.45632235 90745
SL-8 R/B                
1 03230U 68040B   26080.55539468  .00002926  00000+0  21735-3 0  9996
2 03230  74.0293 289.4467 0023464 108.6541 251.7198 15.03330245 91794
OAO 2                   
1 03597U 68110A   26080.44193807  .00000244  00000+0  70954-4 0  9990
2 03597  34.9924 199.6054 0006196 290.4251  69.5774 14.47314281 20809
ISIS 1                  
1 03669U 69009A   26080.57917727  .00000160  00000+0  98434-4 0  9997
2 03669  88.4522 154.0117 1707862  65.1780 311.6992 11.30417538349877
SERT 2                  
1 04327U 70009A   26080.57700174  .00000004  00000+0  62225-4 0  9993
2 04327  99.2776  23.0210 0005452 127.6710  45.9085 13.58730851781509
SL-3 R/B                
1 05118U 71028B   26080.57438059  .00054806  00000+0  61924-3 0  9997
2 05118  81.2379  37.3396 0013696 234.3144 125.6835 15.62130418990520
ASTEX 1                 
1 05560U 71089A   26080.20287411  .00000389  00000+0  99003-4 0  9996
2 05560  92.7104 155.4816 0017260  51.6705 308.6049 14.50781180863979
SL-8 R/B                
1 05730U 71119B   26080.55406889  .00010398  00000+0  54308-3 0  9998
2 05730  73.8867 153.5395 0547213 117.6701 248.1091 14.38104980657193
OAO 3 (COPERNICUS)      
1 06153U 72065A   26080.42379882  .00000361  00000+0  78392-4 0  9996
2 06153  35.0047 230.4602 0007303 258.6473 129.0794 14.60007264847912
ATLAS CENTAUR R/B       
1 06155U 72065B   26080.44996472  .00001333  00000+0  18465-3 0  9994
2 06155  35.0004 236.8315 0032885 109.3593 251.0667 14.77719253843003
SL-8 R/B                
1 08459U 75112B   26080.46725053  .00000250  00000+0  90724-4 0  9992
2 08459  74.0637 357.2486 0014458  85.5448 274.7357 14.38210479633563
SL-3 R/B                
1 10114U 77057B   26080.56625387  .00017105  00000+0  35423-3 0  9994
2 10114  97.5788 253.0138 0006362 234.4130 125.6527 15.45818119670160
SEASAT 1                
1 10967U 78064A   26080.60121292  .00000241  00000+0  10570-3 0  9999
2 10967 108.0085 150.4937 0002513 280.2961  79.7901 14.46169672508232
SL-14 R/B               
1 11267U 79011B   26080.51886556  .00000654  00000+0  62020-4 0  9993
2 11267  82.5205  85.3424 0016624  23.5095 336.6881 14.91922530530548
