[{"OBJECT_NAME":"ATLAS CENTAUR 2","OBJECT_ID":"1963-047A","EPOCH":"2026-03-21T11:50:43.965888","MEAN_MOTION":14.12109735,"ECCENTRICITY":0.05474302,"INCLINATION":30.3536,"RA_OF_ASC_NODE":129.6725,"ARG_OF_PERICENTER":184.3176,"MEAN_ANOMALY":175.2559,"EPHEMERIS_TYPE":0,"CLASSIFICATION_TYPE":"U","NORAD_CAT_ID":694,"ELEMENT_SET_NO":999,"REV_AT_EPOCH":13329,"BSTAR":0.00022004576,"MEAN_MOTION_DOT":1.909e-5,"MEAN_MOTION_DDOT":0},{"OBJECT_NAME":"THOR AGENA D R/B","OBJECT_ID":"1964-002A","EPOCH":"2026-03-21T12:33:22.030560","MEAN_MOTION":14.34026387,"ECCENTRICITY":0.00322394,"INCLINATION":99.122,"RA_OF_ASC_NODE":94.5056,"ARG_OF_PERICENTER":222.75,"MEAN_ANOMALY":137.1175,"EPHEMERIS_TYPE":0,"CLASSIFICATION_TYPE":"U","NORAD_CAT_ID":733,"ELEMENT_SET_NO":999,"REV_AT_EPOCH":23999,"BSTAR":7.4711858e-5,"MEAN_MOTION_DOT":1.61e-6,"MEAN_MOTION_DDOT":0},{"OBJECT_NAME":"SL-3 R/B","OBJECT_ID":"1964-053B","EPOCH":"2026-03-21T07:48:58.015872","MEAN_MOTION":14.61376137,"ECCENTRICITY":0.00801589,"INCLINATION":65.0765,"RA_OF_ASC_NODE":297.123,"ARG_OF_PERICENTER":288.5594,"MEAN_ANOMALY":70.6811,"EPHEMERIS_TYPE":0,"CLASSIFICATION_TYPE":"U","NORAD_CAT_ID":877,"ELEMENT_SET_NO":999,"REV_AT_EPOCH":26849,"BSTAR":5.3600897e-5,"MEAN_MOTION_DOT":1.51e-6,"MEAN_MOTION_DDOT":0},{"OBJECT_NAME":"SL-8 R/B","OBJECT_ID":"1967-045B","EPOCH":"2026-03-21T14:47:14.215200","MEAN_MOTION":14.45632235,"ECCENTRICITY":0.00646663,"INCLINATION":74.0125,"RA_OF_ASC_NODE":325.8179,"ARG_OF_PERICENTER":329.3931,"MEAN_ANOMALY":30.3459,"EPHEMERIS_TYPE":0,"CLASSIFICATION_TYPE":"U","NORAD_CAT_ID":2802,"ELEMENT_SET_NO":999,"REV_AT_EPOCH":9074,"BSTAR":8.9821829e-5,"MEAN_MOTION_DOT":2.97e-6,"MEAN_MOTION_DDOT":0},{"OBJECT_NAME":"SL-8 R/B","OBJECT_ID":"1968-040B","EPOCH":"2026-03-21T13:19:46.100352","MEAN_MOTION":15.03330245,"ECCENTRICITY":0.00234644,"INCLINATION":74.0293,"RA_OF_ASC_NODE":289.4467,"ARG_OF_PERICENTER":108.6541,"MEAN_ANOMALY":251.7198,"EPHEMERIS_TYPE":0,"CLASSIFICATION_TYPE":"U","NORAD_CAT_ID":3230,"ELEMENT_SET_NO":999,"REV_AT_EPOCH":9179,"BSTAR":0.00021734975,"MEAN_MOTION_DOT":2.926e-5,"MEAN_MOTION_DDOT":0},{"OBJECT_NAME":"OAO 2","OBJECT_ID":"1968-110A","EPOCH":"2026-03-21T10:36:23.449248","MEAN_MOTION":14.47314281,"ECCENTRICITY":0.00061961,"INCLINATION":34.9924,"RA_OF_ASC_NODE":199.6054,"ARG_OF_PERICENTER":290.4251,"MEAN_ANOMALY":69.5774,"EPHEMERIS_TYPE":0,"CLASSIFICATION_TYPE":"U","NORAD_CAT_ID":3597,"ELEMENT_SET_NO":999,"REV_AT_EPOCH":2080,"BSTAR":7.0953949e-5,"MEAN_MOTION_DOT":2.44e-6,"MEAN_MOTION_DDOT":0},{"OBJECT_NAME":"ISIS 1","OBJECT_ID":"1969-009A","EPOCH":"2026-03-21T13:54:00.916128","MEAN_MOTION":11.30417538,"ECCENTRICITY":0.17078624,"INCLINATION":88.4522,"RA_OF_ASC_NODE":154.0117,"ARG_OF_PERICENTER":65.178,"MEAN_ANOMALY":311.6992,"EPHEMERIS_TYPE":0,"CLASSIFICATION_TYPE":"U","NORAD_CAT_ID":3669,"ELEMENT_SET_NO":999,"REV_AT_EPOCH":34987,"BSTAR":9.8434366e-5,"MEAN_MOTION_DOT":1.6e-6,"MEAN_MOTION_DDOT":0},{"OBJECT_NAME":"SERT 2","OBJECT_ID":"1970-009A","EPOCH":"2026-03-21T13:50:52.950336","MEAN_MOTION":13.58730851,"ECCENTRICITY":0.00054522,"INCLINATION":99.2776,"RA_OF_ASC_NODE":23.021,"ARG_OF_PERICENTER":127.671,"MEAN_ANOMALY":45.9085,"EPHEMERIS_TYPE":0,"CLASSIFICATION_TYPE":"U","NORAD_CAT_ID":4327,"ELEMENT_SET_NO":999,"REV_AT_EPOCH":78150,"BSTAR":6.2224821e-5,"MEAN_MOTION_DOT":4.0e-8,"MEAN_MOTION_DDOT":0},{"OBJECT_NAME":"SL-3 R/B","OBJECT_ID":"1971-028B","EPOCH":"2026-03-21T13:47:06.482976","MEAN_MOTION":15.62130418,"ECCENTRICITY":0.00136963,"INCLINATION":81.2379,"RA_OF_ASC_NODE":37.3396,"ARG_OF_PERICENTER":234.3144,"MEAN_ANOMALY":125.6835,"EPHEMERIS_TYPE":0,"CLASSIFICATION_TYPE":"U","NORAD_CAT_ID":5118,"ELEMENT_SET_NO":999,"REV_AT_EPOCH":99052,"BSTAR":0.00061924199,"MEAN_MOTION_DOT":0.00054806,"MEAN_MOTION_DDOT":0},{"OBJECT_NAME":"ASTEX 1","OBJECT_ID":"1971-089A","EPOCH":"2026-03-21T04:52:08.323104","MEAN_MOTION":14.5078118,"ECCENTRICITY":0.001726,"INCLINATION":92.7104,"RA_OF_ASC_NODE":155.4816,"ARG_OF_PERICENTER":51.6705,"MEAN_ANOMALY":308.6049,"EPHEMERIS_TYPE":0,"CLASSIFICATION_TYPE":"U","NORAD_CAT_ID":5560,"ELEMENT_SET_NO":999,"REV_AT_EPOCH":86397,"BSTAR":9.900329e-5,"MEAN_MOTION_DOT":3.89e-6,"MEAN_MOTION_DDOT":0},{"OBJECT_NAME":"SL-8 R/B","OBJECT_ID":"1971-119B","EPOCH":"2026-03-21T13:17:51.552096","MEAN_MOTION":14.3810498,"ECCENTRICITY":0.05472136,"INCLINATION":73.8867,"RA_OF_ASC_NODE":153.5395,"ARG_OF_PERICENTER":117.6701,"MEAN_ANOMALY":248.1091,"EPHEMERIS_TYPE":0,"CLASSIFICATION_TYPE":"U","NORAD_CAT_ID":5730,"ELEMENT_SET_NO":999,"REV_AT_EPOCH":65719,"BSTAR":0.00054307532,"MEAN_MOTION_DOT":0.00010398,"MEAN_MOTION_DDOT":0},{"OBJECT_NAME":"OAO 3 (COPERNICUS)","OBJECT_ID":"1972-065A","EPOCH":"2026-03-21T10:10:16.218048","MEAN_MOTION":14.60007264,"ECCENTRICITY":0.00073035,"INCLINATION":35.0047,"RA_OF_ASC_NODE":230.4602,"ARG_OF_PERICENTER":258.6473,"MEAN_ANOMALY":129.0794,"EPHEMERIS_TYPE":0,"CLASSIFICATION_TYPE":"U","NORAD_CAT_ID":6153,"ELEMENT_SET_NO":999,"REV_AT_EPOCH":84791,"BSTAR":7.8391562e-5,"MEAN_MOTION_DOT":3.61e-6,"MEAN_MOTION_DDOT":0},{"OBJECT_NAME":"ATLAS CENTAUR R/B","OBJECT_ID":"1972-065B","EPOCH":"2026-03-21T10:47:56.951808","MEAN_MOTION":14.77719253,"ECCENTRICITY":0.00328859,"INCLINATION":35.0004,"RA_OF_ASC_NODE":236.8315,"ARG_OF_PERICENTER":109.3593,"MEAN_ANOMALY":251.0667,"EPHEMERIS_TYPE":0,"CLASSIFICATION_TYPE":"U","NORAD_CAT_ID":6155,"ELEMENT_SET_NO":999,"REV_AT_EPOCH":84300,"BSTAR":0.00018464658,"MEAN_MOTION_DOT":1.333e-5,"MEAN_MOTION_DDOT":0},{"OBJECT_NAME":"SL-8 R/B","OBJECT_ID":"1975-112B","EPOCH":"2026-03-21T11:12:50.445792","MEAN_MOTION":14.38210479,"ECCENTRICITY":0.00144585,"INCLINATION":74.0637,"RA_OF_ASC_NODE":357.2486,"ARG_OF_PERICENTER":85.5448,"MEAN_ANOMALY":274.7357,"EPHEMERIS_TYPE":0,"CLASSIFICATION_TYPE":"U","NORAD_CAT_ID":8459,"ELEMENT_SET_NO":999,"REV_AT_EPOCH":63356,"BSTAR":9.072435e-5,"MEAN_MOTION_DOT":2.5e-6,"MEAN_MOTION_DDOT":0},{"OBJECT_NAME":"SL-3 R/B","OBJECT_ID":"1977-057B","EPOCH":"2026-03-21T13:35:24.334368","MEAN_MOTION":15.45818119,"ECCENTRICITY":0.00063629,"INCLINATION":97.5788,"RA_OF_ASC_NODE":253.0138,"ARG_OF_PERICENTER":234.413,"MEAN_ANOMALY":125.6527,"EPHEMERIS_TYPE":0,"CLASSIFICATION_TYPE":"U","NORAD_CAT_ID":10114,"ELEMENT_SET_NO":999,"REV_AT_EPOCH":67016,"BSTAR":0.00035422983,"MEAN_MOTION_DOT":0.00017105,"MEAN_MOTION_DDOT":0},{"OBJECT_NAME":"SEASAT 1","OBJECT_ID":"1978-064A","EPOCH":"2026-03-21T14:25:44.796288","MEAN_MOTION":14.46169672,"ECCENTRICITY":0.00025138,"INCLINATION":108.0085,"RA_OF_ASC_NODE":150.4937,"ARG_OF_PERICENTER":280.2961,"MEAN_ANOMALY":79.7901,"EPHEMERIS_TYPE":0,"CLASSIFICATION_TYPE":"U","NORAD_CAT_ID":10967,"ELEMENT_SET_NO":999,"REV_AT_EPOCH":50823,"BSTAR":0.00010570379,"MEAN_MOTION_DOT":2.41e-6,"MEAN_MOTION_DDOT":0},{"OBJECT_NAME":"SL-14 R/B","OBJECT_ID":"1979-011B","EPOCH":"2026-03-21T12:27:09.984384","MEAN_MOTION":14.9192253,"ECCENTRICITY":0.00166241,"INCLINATION":82.5205,"RA_OF_ASC_NODE":85.3424,"ARG_OF_PERICENTER":23.5095,"MEAN_ANOMALY":336.6881,"EPHEMERIS_TYPE":0,"CLASSIFICATION_TYPE":"U","NORAD_CAT_ID":11267,"ELEMENT_SET_NO":999,"REV_AT_EPOCH":53054,"BSTAR":6.2020319e-5,"MEAN_MOTION_DOT":6.54e-6,"MEAN_MOTION_DDOT":0}]
